NORAD_CAT_ID,OBJECT_NAME,OBJECT_TYPE,EPOCH,MEAN_MOTION,ECCENTRICITY,INCLINATION,RA_OF_ASC_NODE,ARG_OF_PERICENTER,MEAN_ANOMALY,BSTAR,MEAN_MOTION_DOT,MEAN_MOTION_DDOT,TLE_LINE0,TLE_LINE1,TLE_LINE2,SEMIMAJOR_AXIS,PERIOD,APOGEE,PERIGEE,DECAYED
55655.0,STARLINK-5267,PAYLOAD,2023-12-10 16:32:37,14.98328685,0.0002067,70.0018,72.0864,291.0013,69.0925,1.2797e-05,6e-07,0.0,0 STARLINK-5267,1 55655U 23021AD  23344.68931956  .00000060  00000-0  12797-4 0  9993,2 55655  70.0018  72.0864 0002067 291.0013  69.0925 14.98328685 46153,6950.197,96.107,573.499,570.625,0.0
55655.0,STARLINK-5267,PAYLOAD,2023-12-11 13:22:21,14.98326977,0.0002434,70.0022,69.901,240.7757,119.3159,7.0599e-07,-8.4e-07,0.0,0 STARLINK-5267,1 55655U 23021AD  23345.55719748 -.00000084  00000-0  70599-6 0  9996,2 55655  70.0022  69.9010 0002434 240.7757 119.3159 14.98326977 46587,6950.202,96.107,573.759,570.376,0.0
55655.0,STARLINK-5267,PAYLOAD,2023-12-11 14:58:30,14.9832459,0.0002253,70.0017,69.7309,274.4107,85.6795,-1.7463e-05,-3.01e-06,0.0,0 STARLINK-5267,1 55655U 23021AD  23345.62396113 -.00000301  00000-0 -17463-4 0  9993,2 55655  70.0017  69.7309 0002253 274.4107  85.6795 14.98324590 46593,6950.21,96.107,573.641,570.509,0.0
55655.0,STARLINK-5267,PAYLOAD,2023-12-12 11:48:14,14.98335148,0.0002362,70.0008,67.5438,286.2304,73.8595,-5.4779e-05,-7.47e-06,0.0,0 STARLINK-5267,1 55655U 23021AD  23346.49183483 -.00000747  00000-0 -54779-4 0  9998,2 55655  70.0008  67.5438 0002362 286.2304  73.8595 14.98335148 46423,6950.177,96.107,573.684,570.4,0.0
55655.0,STARLINK-5267,PAYLOAD,2023-12-12 13:24:22,14.98331388,0.0002545,70.0006,67.3753,270.7793,89.3074,-1.8336e-05,-3.12e-06,0.0,0 STARLINK-5267,1 55655U 23021AD  23346.55859391 -.00000312  00000-0 -18336-4 0  9990,2 55655  70.0006  67.3753 0002545 270.7793  89.3074 14.98331388 46732,6950.189,96.107,573.822,570.285,0.0
55655.0,STARLINK-5267,PAYLOAD,2023-12-12 15:00:30,14.98331196,0.0002431,70.0008,67.2064,283.0604,77.0284,-4.7007e-05,-6.54e-06,0.0,0 STARLINK-5267,1 55655U 23021AD  23346.62535561 -.00000654  00000-0 -47007-4 0  9994,2 55655  70.0008  67.2064 0002431 283.0604  77.0284 14.98331196 46745,6950.189,96.107,573.744,570.365,0.0
55655.0,STARLINK-5267,PAYLOAD,2023-12-13 11:50:15,14.98331513,0.0002841,70.0003,65.0181,257.8947,102.1894,4.2864e-06,-4.2e-07,0.0,0 STARLINK-5267,1 55655U 23021AD  23347.49323028 -.00000042  00000-0  42864-5 0  9990,2 55655  70.0003  65.0181 0002841 257.8947 102.1894 14.98331513 46571,6950.188,96.107,574.028,570.079,0.0
55655.0,STARLINK-5267,PAYLOAD,2023-12-13 13:26:23,14.98334125,0.0002825,70.0,64.8493,260.8252,99.2588,-3.0874e-05,-4.61e-06,0.0,0 STARLINK-5267,1 55655U 23021AD  23347.55998967 -.00000461  00000-0 -30874-4 0  9990,2 55655  70.0000  64.8493 0002825 260.8252  99.2588 14.98334125 46888,6950.18,96.107,574.009,570.082,0.0
55655.0,STARLINK-5267,PAYLOAD,2023-12-13 15:02:31,14.98331265,0.0002875,70.0,64.6806,262.6357,97.4475,1.2629e-05,5.8e-07,0.0,0 STARLINK-5267,1 55655U 23021AD  23347.62675025  .00000058  00000-0  12629-4 0  9993,2 55655  70.0000  64.6806 0002875 262.6357  97.4475 14.98331265 46893,6950.189,96.107,574.052,570.056,0.0
55655.0,STARLINK-5267,PAYLOAD,2023-12-14 11:52:16,14.98325291,0.0002715,70.0004,62.4929,256.5758,103.5098,-2.7109e-05,-4.16e-06,0.0,0 STARLINK-5267,1 55655U 23021AD  23348.49463593 -.00000416  00000-0 -27109-4 0  9993,2 55655  70.0004  62.4929 0002715 256.5758 103.5098 14.98325291 46723,6950.207,96.107,573.959,570.185,0.0
55655.0,STARLINK-5267,PAYLOAD,2023-12-14 13:28:24,14.98325969,0.0002699,70.0005,62.3248,255.8989,104.187,-1.8493e-05,-3.14e-06,0.0,0 STARLINK-5267,1 55655U 23021AD  23348.56139540 -.00000314  00000-0 -18493-4 0  9996,2 55655  70.0005  62.3248 0002699 255.8989 104.1870 14.98325969 47038,6950.205,96.107,573.946,570.194,0.0
55655.0,STARLINK-5267,PAYLOAD,2023-12-14 15:04:32,14.98326259,0.0002702,70.0004,62.1565,256.2937,103.7921,-1.5574e-05,-2.79e-06,0.0,0 STARLINK-5267,1 55655U 23021AD  23348.62815529 -.00000279  00000-0 -15574-4 0  9998,2 55655  70.0004  62.1565 0002702 256.2937 103.7921 14.98326259 47046,6950.204,96.107,573.947,570.192,0.0
55655.0,STARLINK-5267,PAYLOAD,2023-12-15 11:54:16,14.98333009,0.0002783,70.0002,59.9673,261.2852,98.7992,2.8276e-05,2.44e-06,0.0,0 STARLINK-5267,1 55655U 23021AD  23349.49602900  .00000244  00000-0  28276-4 0  9994,2 55655  70.0002  59.9673 0002783 261.2852  98.7992 14.98333009 46871,6950.184,96.107,573.983,570.114,0.0
55655.0,STARLINK-5267,PAYLOAD,2023-12-15 13:30:24,14.98332883,0.0002788,70.0001,59.7989,261.8082,98.2761,2.637e-05,2.22e-06,0.0,0 STARLINK-5267,1 55655U 23021AD  23349.56278906  .00000222  00000-0  26370-4 0  9996,2 55655  70.0001  59.7989 0002788 261.8082  98.2761 14.98332883 47187,6950.184,96.107,573.987,570.111,0.0
55655.0,STARLINK-5267,PAYLOAD,2023-12-15 15:06:32,14.98333342,0.0002797,70.0001,59.6306,262.8362,97.2479,3.0714e-05,2.74e-06,0.0,0 STARLINK-5267,1 55655U 23021AD  23349.62954856  .00000274  00000-0  30714-4 0  9992,2 55655  70.0001  59.6306 0002797 262.8362  97.2479 14.98333342 47198,6950.183,96.107,573.992,570.104,0.0
55655.0,STARLINK-5267,PAYLOAD,2023-12-16 11:56:18,14.98328569,0.000281,70.0001,57.4425,259.6151,100.4692,3.0403e-05,2.7e-06,0.0,0 STARLINK-5267,1 55655U 23021AD  23350.49743127  .00000270  00000-0  30403-4 0  9997,2 55655  70.0001  57.4425 0002810 259.6151 100.4692 14.98328569 47023,6950.197,96.107,574.015,570.109,0.0
55655.0,STARLINK-5267,PAYLOAD,2023-12-16 13:32:26,14.98329271,0.0002803,70.0001,57.2744,258.7709,101.3135,3.7085e-05,3.5e-06,0.0,0 STARLINK-5267,1 55655U 23021AD  23350.56419061  .00000350  00000-0  37085-4 0  9994,2 55655  70.0001  57.2744 0002803 258.7709 101.3135 14.98329271 47333,6950.195,96.107,574.008,570.112,0.0
55655.0,STARLINK-5267,PAYLOAD,2023-12-16 15:08:34,14.98329215,0.0002812,70.0,57.1056,261.7503,98.3337,3.5112e-05,3.26e-06,0.0,0 STARLINK-5267,1 55655U 23021AD  23350.63095084  .00000326  00000-0  35112-4 0  9999,2 55655  70.0000  57.1056 0002812 261.7503  98.3337 14.98329215 47341,6950.195,96.107,574.015,570.106,0.0
55655.0,STARLINK-5267,PAYLOAD,2023-12-17 11:58:19,14.98326596,0.000268,70.0005,54.9167,259.4131,100.6726,-5.1673e-05,-7.09e-06,0.0,0 STARLINK-5267,1 55655U 23021AD  23351.49883527 -.00000709  00000-0 -51673-4 0  9998,2 55655  70.0005  54.9167 0002680 259.4131 100.6726 14.98326596 47177,6950.203,96.107,573.931,570.206,0.0
55655.0,STARLINK-5267,PAYLOAD,2023-12-17 13:34:27,14.98326943,0.0002707,70.0004,54.7487,259.1102,100.9753,-5.3972e-05,-7.37e-06,0.0,0 STARLINK-5267,1 55655U 23021AD  23351.56559495 -.00000737  00000-0 -53972-4 0  9995,2 55655  70.0004  54.7487 0002707 259.1102 100.9753 14.98326943 47487,6950.202,96.107,573.949,570.186,0.0
55655.0,STARLINK-5267,PAYLOAD,2023-12-18 12:00:19,14.98335984,0.0002516,70.001,52.3933,248.9594,111.1296,9.7059e-05,1.065e-05,0.0,0 STARLINK-5267,1 55655U 23021AD  23352.50022286  .00001065  00000-0  97059-4 0  9990,2 55655  70.0010  52.3933 0002516 248.9594 111.1296 14.98335984 47327,6950.174,96.107,573.788,570.291,0.0
55655.0,STARLINK-5267,PAYLOAD,2023-12-18 13:36:27,14.98337236,0.0002564,70.0009,52.2249,252.3099,107.7781,0.00010424,1.151e-05,0.0,0 STARLINK-5267,1 55655U 23021AD  23352.56698153  .00001151  00000-0  10424-3 0  9994,2 55655  70.0009  52.2249 0002564 252.3099 107.7781 14.98337236 47632,6950.171,96.107,573.818,570.253,0.0
55655.0,STARLINK-5267,PAYLOAD,2023-12-19 12:02:21,14.98316502,0.0002546,70.0018,49.8696,235.2061,124.8858,-6.86e-05,-9.11e-06,0.0,0 STARLINK-5267,1 55655U 23021AD  23353.50163907 -.00000911  00000-0 -68600-4 0  9998,2 55655  70.0018  49.8696 0002546 235.2061 124.8858 14.98316502 47479,6950.235,96.108,573.869,570.33,0.0
55655.0,STARLINK-5267,PAYLOAD,2023-12-19 13:38:29,14.98316239,0.0002518,70.0017,49.7009,237.6568,122.4348,-7.17e-05,-9.48e-06,0.0,0 STARLINK-5267,1 55655U 23021AD  23353.56839986 -.00000948  00000-0 -71700-4 0  9996,2 55655  70.0017  49.7009 0002518 237.6568 122.4348 14.98316239 47781,6950.235,96.108,573.851,570.35,0.0
55655.0,STARLINK-5267,PAYLOAD,2023-12-20 04:03:41,14.98331515,0.0002966,69.9999,48.1836,260.4059,99.6765,-9.2886e-05,-1.201e-05,0.0,0 STARLINK-5267,1 55655U 23021AD  23354.16923163 -.00001201  00000-0 -92886-4 0  9995,2 55655  69.9999  48.1836 0002966 260.4059  99.6765 14.98331515 47573,6950.188,96.107,574.115,569.992,0.0
55655.0,STARLINK-5267,PAYLOAD,2023-12-20 13:40:29,14.9833354,0.0002902,70.0001,47.1743,259.0453,101.038,-3.6869e-05,-5.33e-06,0.0,0 STARLINK-5267,1 55655U 23021AD  23354.56978834 -.00000533  00000-0 -36869-4 0  9990,2 55655  70.0001  47.1743 0002902 259.0453 101.0380 14.98333540 47939,6950.182,96.107,574.064,570.03,0.0
55655.0,STARLINK-5267,PAYLOAD,2023-12-21 04:05:42,14.98329856,0.0003045,69.9999,45.6594,260.1852,99.8963,0.00010421,1.151e-05,0.0,0 STARLINK-5267,1 55655U 23021AD  23355.17062594  .00001151  00000-0  10421-3 0  9995,2 55655  69.9999  45.6594 0003045 260.1852  99.8963 14.98329856 47727,6950.193,96.107,574.175,569.942,0.0
55655.0,STARLINK-5267,PAYLOAD,2023-12-21 13:42:30,14.98331245,0.0002401,70.0012,44.6503,269.1685,90.9199,0.00015761,1.788e-05,0.0,0 STARLINK-5267,1 55655U 23021AD  23355.57118604  .00001788  00000-0  15761-3 0  9991,2 55655  70.0012  44.6503 0002401 269.1685  90.9199 14.98331245 48081,6950.189,96.107,573.723,570.385,0.0
55655.0,STARLINK-5267,PAYLOAD,2023-12-22 04:07:43,14.98328727,0.0002548,70.0022,43.1375,255.6128,104.4748,3.3237e-05,3.04e-06,0.0,0 STARLINK-5267,1 55655U 23021AD  23356.17202873  .00000304  00000-0  33237-4 0  9992,2 55655  70.0022  43.1375 0002548 255.6128 104.4748 14.98328727 47875,6950.197,96.107,573.833,570.291,0.0
55655.0,STARLINK-5267,PAYLOAD,2023-12-22 13:44:31,14.98329484,0.0002404,70.0009,42.1246,271.7162,88.3721,1.8727e-05,1.31e-06,0.0,0 STARLINK-5267,1 55655U 23021AD  23356.57258966  .00000131  00000-0  18727-4 0  9995,2 55655  70.0009  42.1246 0002404 271.7162  88.3721 14.98329484 48237,6950.194,96.107,573.73,570.389,0.0
